     2.01           GLONASS NAV DATA                        RINEX VERSION / TYPE
CCRINEXG V1.4 UX    CDDIS               26-JUN-20 19:33     PGM / RUN BY / DATE 
IGS BROADCAST EPHEMERIS FILE                                COMMENT             
teqc  2019Feb25     UNAVCO Archive Ops  20200626  6:21:     COMMENT             
  2020     6    25   -0.465661287308D-09                    CORR TO SYSTEM TIME 
    18                                                      LEAP SECONDS        
                                                            END OF HEADER       
20 20  6 25  7 45  0.0-0.415134243667D-03-0.000000000000D+00 0.270000000000D+05
   -0.653071191406D+04 0.309794235230D+01 0.931322574616D-09 0.000000000000D+00
   -0.990658007812D+04-0.124788284302D-01-0.279396772385D-08 0.200000000000D+01
   -0.225854189453D+05-0.886294364929D+00 0.931322574616D-09 0.000000000000D+00
21 20  6 25  7 45  0.0-0.133749097586D-03-0.272848410532D-11 0.270000000000D+05
   -0.227524667969D+05 0.149961185455D+01 0.186264514923D-08 0.000000000000D+00
   -0.376845849609D+04 0.128338813782D+00-0.000000000000D+00 0.400000000000D+01
   -0.108767143555D+05-0.318535995483D+01 0.931322574616D-09 0.000000000000D+00
23 20  6 25  7 45  0.0 0.314430333674D-03 0.181898940355D-11 0.270000000000D+05
   -0.751200878906D+04-0.302788639069D+01-0.000000000000D+00 0.000000000000D+00
    0.102572993164D+05 0.213165283203D+00 0.465661287308D-08 0.300000000000D+01
    0.220998354492D+05-0.112731742859D+01-0.931322574616D-09 0.000000000000D+00
24 20  6 25  7 45  0.0 0.392924994230D-05 0.181898940355D-11 0.270000000000D+05
    0.736665039062D+04-0.303705120087D+01-0.931322574616D-09 0.000000000000D+00
    0.102089018555D+05 0.468750000000D-01 0.279396772385D-08 0.200000000000D+01
    0.221969252930D+05 0.985595703125D+00-0.931322574616D-09 0.000000000000D+00
26 20  6 25  7 45  0.0-0.392026267946D-03 0.000000000000D+00 0.270300000000D+05
   -0.126247949219D+04 0.318846225738D+01 0.931322574616D-09 0.100000000000D+01
   -0.103801235352D+05-0.141354560852D+00-0.372529029846D-08-0.600000000000D+01
   -0.232585351562D+05-0.112427711487D+00 0.000000000000D+00 0.000000000000D+00
 1 20  6 25  8 15  0.0 0.635795295239D-04 0.000000000000D+00 0.294300000000D+05
   -0.114035268555D+05 0.501987457275D+00-0.000000000000D+00 0.000000000000D+00
    0.209995947266D+05-0.111795520782D+01 0.465661287308D-08 0.100000000000D+01
    0.890628906250D+04 0.328247261047D+01 0.931322574616D-09 0.000000000000D+00
 2 20  6 25  8 15  0.0 0.433239154518D-03 0.909494701773D-12 0.288000000000D+05
   -0.188850927734D+04-0.412761688232D+00-0.000000000000D+00 0.000000000000D+00
    0.224138911133D+05 0.160892772675D+01 0.186264514923D-08-0.400000000000D+01
   -0.120382480469D+05 0.304405117035D+01 0.372529029846D-08 0.000000000000D+00
 3 20  6 25  8 15  0.0 0.173989683390D-04 0.000000000000D+00 0.288000000000D+05
    0.803182177734D+04-0.971969604492D+00-0.000000000000D+00 0.000000000000D+00
    0.927856054688D+04 0.291004848480D+01-0.931322574616D-09 0.500000000000D+01
   -0.223230170898D+05 0.853755950928D+00 0.279396772385D-08 0.000000000000D+00
 4 20  6 25  8 15  0.0 0.539999455213D-04 0.909494701773D-12 0.288000000000D+05
    0.130662026367D+05-0.983185768127D+00-0.000000000000D+00 0.000000000000D+00
   -0.911154541016D+04 0.255046939850D+01-0.372529029846D-08 0.600000000000D+01
   -0.198916186523D+05-0.181130218506D+01 0.000000000000D+00 0.000000000000D+00
 5 20  6 25  8 15  0.0 0.529401004314D-04 0.909494701773D-12 0.288000000000D+05
    0.108657827148D+05-0.443420410156D+00 0.000000000000D+00 0.000000000000D+00
   -0.222214101562D+05 0.743760108948D+00-0.372529029846D-08 0.100000000000D+01
   -0.617596484375D+04-0.344939994812D+01-0.931322574616D-09 0.000000000000D+00
 6 20  6 25  8 15  0.0 0.179021619260D-03 0.000000000000D+00 0.288000000000D+05
    0.640168457031D+03 0.435362815857D+00 0.000000000000D+00 0.000000000000D+00
   -0.220182377930D+05-0.170838356018D+01-0.186264514923D-08-0.400000000000D+01
    0.128401000977D+05-0.295192527771D+01-0.279396772385D-08 0.000000000000D+00
 7 20  6 25  8 15  0.0-0.378750264645D-04 0.000000000000D+00 0.288000000000D+05
   -0.836794580078D+04 0.983867645264D+00 0.931322574616D-09 0.000000000000D+00
   -0.860470117188D+04-0.291463851929D+01 0.931322574616D-09 0.500000000000D+01
    0.225432255859D+05-0.752134323120D+00-0.279396772385D-08 0.000000000000D+00
 8 20  6 25  8 15  0.0-0.530490651727D-04 0.000000000000D+00 0.297000000000D+05
   -0.132087416992D+05 0.973965644836D+00 0.000000000000D+00 0.000000000000D+00
    0.903452148438D+04-0.253420448303D+01 0.372529029846D-08 0.600000000000D+01
    0.199258540039D+05 0.179867362976D+01-0.931322574616D-09 0.000000000000D+00
 9 20  6 25  8 15  0.0 0.139953568578D-03 0.272848410532D-11 0.288000000000D+05
   -0.131907382812D+05 0.572575569153D+00 0.931322574616D-09 0.000000000000D+00
   -0.205944497070D+05 0.838162422180D+00-0.186264514923D-08-0.200000000000D+01
    0.739588671875D+04 0.335519695282D+01-0.279396772385D-08 0.000000000000D+00
10 20  6 25  8 15  0.0-0.596875324845D-04 0.000000000000D+00 0.296400000000D+05
   -0.183941372070D+05-0.641303062439D+00 0.186264514923D-08 0.000000000000D+00
   -0.166513227539D+05-0.491519927979D+00-0.186264514923D-08-0.700000000000D+01
   -0.578834277344D+04 0.346077632904D+01-0.931322574616D-09 0.000000000000D+00
11 20  6 25  8 15  0.0-0.283075496554D-04-0.909494701773D-12 0.288000000000D+05
   -0.151320874023D+05-0.188511180878D+01 0.931322574616D-09 0.000000000000D+00
   -0.229658105469D+04-0.206482505798D+01-0.186264514923D-08 0.000000000000D+00
   -0.204058579102D+05 0.162401390076D+01 0.931322574616D-09 0.000000000000D+00
12 20  6 25  8 15  0.0 0.141886994243D-03 0.272848410532D-11 0.288000000000D+05
   -0.340379638672D+04-0.196045398712D+01 0.000000000000D+00 0.000000000000D+00
    0.121033857422D+05-0.232758045196D+01-0.000000000000D+00-0.100000000000D+01
   -0.221682592773D+05-0.967031478882D+00 0.279396772385D-08 0.000000000000D+00
13 20  6 25  8 15  0.0-0.404296442866D-04-0.000000000000D+00 0.288000000000D+05
    0.107389501953D+05-0.915886878967D+00-0.931322574616D-09 0.000000000000D+00
    0.202049428711D+05-0.124931430817D+01 0.931322574616D-09-0.200000000000D+01
   -0.112802016602D+05-0.311406803131D+01 0.279396772385D-08 0.000000000000D+00
14 20  6 25  8 15  0.0 0.526504591107D-04 0.000000000000D+00 0.288000000000D+05
    0.183733608398D+05 0.688473701477D+00-0.186264514923D-08 0.000000000000D+00
    0.164512885742D+05 0.577031135559D+00 0.186264514923D-08-0.700000000000D+01
    0.649019384766D+04-0.342042446137D+01 0.931322574616D-09 0.000000000000D+00
15 20  6 25  8 15  0.0 0.106907449663D-03 0.000000000000D+00 0.288000000000D+05
    0.153836601562D+05 0.185623931885D+01-0.931322574616D-09 0.000000000000D+00
    0.319422998047D+04 0.202921962738D+01 0.186264514923D-08 0.000000000000D+00
    0.201152646484D+05-0.174406337738D+01-0.931322574616D-09 0.000000000000D+00
16 20  6 25  8 15  0.0-0.436697155237D-05-0.000000000000D+00 0.288000000000D+05
    0.289196435547D+04 0.199173927307D+01 0.000000000000D+00 0.000000000000D+00
   -0.126242431641D+05 0.225730895996D+01 0.000000000000D+00-0.100000000000D+01
    0.219344609375D+05 0.104645919800D+01-0.279396772385D-08 0.000000000000D+00
17 20  6 25  8 15  0.0 0.335943885148D-03 0.272848410532D-11 0.288000000000D+05
    0.187601943359D+05-0.228582668304D+01-0.931322574616D-09 0.000000000000D+00
    0.428330908203D+04 0.268645286560D+00 0.186264514923D-08 0.400000000000D+01
    0.167675512695D+05 0.248557949066D+01-0.931322574616D-09 0.000000000000D+00
18 20  6 25  8 15  0.0 0.400375574827D-04 0.909494701773D-12 0.288000000000D+05
    0.251336635742D+05-0.223467826843D+00-0.931322574616D-09 0.000000000000D+00
   -0.396334521484D+04-0.195081710815D+00-0.931322574616D-09-0.300000000000D+01
    0.135422021484D+04 0.360210323334D+01-0.000000000000D+00 0.000000000000D+00
19 20  6 25  8 15  0.0-0.994959846139D-04-0.909494701773D-12 0.288000000000D+05
    0.187412075195D+05 0.192796707153D+01-0.000000000000D+00 0.000000000000D+00
   -0.950489404297D+04-0.505151748657D+00-0.279396772385D-08 0.300000000000D+01
   -0.144683452148D+05 0.282988262176D+01 0.000000000000D+00 0.000000000000D+00
20 20  6 25  8 15  0.0-0.415136106312D-03-0.909494701773D-12 0.288000000000D+05
   -0.855120605469D+03 0.315492916107D+01 0.000000000000D+00 0.000000000000D+00
   -0.103694667969D+05-0.501686096191D+00-0.372529029846D-08 0.200000000000D+01
   -0.232874497070D+05 0.111446380615D+00 0.000000000000D+00 0.000000000000D+00
21 20  6 25  8 15  0.0-0.133753754199D-03-0.272848410532D-11 0.288000000000D+05
   -0.193885747070D+05 0.220304679871D+01 0.931322574616D-09 0.000000000000D+00
   -0.383786865234D+04-0.235959053040D+00-0.186264514923D-08 0.400000000000D+01
   -0.161152880859D+05-0.259749412537D+01 0.931322574616D-09 0.000000000000D+00
23 20  6 25  8 15  0.0 0.314435921609D-03 0.181898940355D-11 0.297000000000D+05
   -0.125974160156D+05-0.257703590393D+01 0.000000000000D+00 0.000000000000D+00
    0.110093222656D+05 0.598402976990D+00 0.465661287308D-08 0.300000000000D+01
    0.192415361328D+05-0.202790546417D+01 0.000000000000D+00 0.000000000000D+00
24 20  6 25  8 15  0.0 0.393204391003D-05 0.181898940355D-11 0.288300000000D+05
    0.178069873047D+04-0.311778545380D+01 0.000000000000D+00 0.000000000000D+00
    0.107116875000D+05 0.512486457825D+00 0.372529029846D-08 0.200000000000D+01
    0.230911708984D+05 0.154209136963D-02-0.931322574616D-09 0.000000000000D+00
26 20  6 25  8 15  0.0-0.392025336623D-03 0.000000000000D+00 0.288300000000D+05
    0.438610742188D+04 0.303556728363D+01 0.000000000000D+00 0.100000000000D+01
   -0.110626899414D+05-0.606540679932D+00-0.372529029846D-08-0.600000000000D+01
   -0.225587426758D+05 0.884844779968D+00 0.000000000000D+00 0.000000000000D+00
